format  = 'OEF2.0'       ! file format
rectype = 'ML'           ! record type (1L/ML)
refsys  = ECLM J2000     ! default reference system
END_OF_HEADER
1996TC1
! Equinoctial elements: a, e*sin(LP), e*cos(LP), tan(i/2)*sin(LN), tan(i/2)*cos(LN), mean long.
 EQU   1.8612256565618639E+00  -0.715753738942681  -0.077145586926583    0.009123144386890    0.126634605505512 136.1472022647065
 MJD     57400.000000000 TDT
 MAG  23.935  0.150
! Non-grav parameters: model used, actual number in use, dimension
 LSP   0  0    6
! RMS    3.49179E-02   4.65464E-03   2.83316E-03   4.51542E-04   2.15316E-04   6.70243E+01
! EIG   1.62031E-09   6.72075E-08   1.58139E-06   2.56368E-06   9.19443E-05   1.17033E+00
! WEA   0.02984  -0.00398  -0.00242  -0.00039  -0.00018  -0.99954
 COV   1.219257327565910E-03 -1.625237771136934E-04 -9.888628233376658E-05
 COV  -1.576606848039236E-05 -7.513449725241410E-06 -2.340346002525684E+00
 COV   2.166566753706897E-05  1.318464561678978E-05  2.101387902337964E-06
 COV   1.001222225598788E-06  3.119621550620004E-01  8.026806692030418E-06
 COV   1.278311552502561E-06  6.087633877174525E-07  1.898111705904711E-01
 COV   2.038903128928685E-07  9.719013333304804E-08  3.026270522145802E-02
 COV   4.636078822460953E-08  1.442191317916980E-02  4.492258790443051E+03
 NOR   4.972127688048107E+17 -1.056660043506985E+16 -1.191249005439491E+16
 NOR   3.887665439938496E+15 -2.065914816075170E+15  2.602520506299551E+14
 NOR   2.400696251974638E+14  2.476355185412985E+14 -2.790349061119995E+13
 NOR   3.365907941712035E+13 -5.531969520517447E+12  2.873823457285171E+14
 NOR  -1.124504093701068E+14  5.312897321332553E+13 -6.234839585788806E+12
 NOR   2.278106287092919E+14 -5.303417202139061E+13  2.030693814022194E+12
 NOR   1.563236401207489E+13 -1.080561256693237E+12  1.362217119923528E+11
